{"type": "FeatureCollection", "features": [ {"type": "Feature", "properties": {"norad_id": 66427, "name": "STARLINK-35611", "group": "last-30-days", "lat": 5.180152896134889, "lon": -97.0770692777377, "alt_km": 432.71706410995284, "timestamp": "2025-12-05T16:54:13.485164+00:00", "meta": {"OBJECT_NAME": "STARLINK-35611", "OBJECT_ID": "2025-259F", "EPOCH": "2025-12-05T06:00:02.000160", "MEAN_MOTION": 15.46364688, "ECCENTRICITY": 0.00012979, "INCLINATION": 43.0001, "RA_OF_ASC_NODE": 91.1429, "ARG_OF_PERICENTER": 279.094, "MEAN_ANOMALY": 242.8197, "EPHEMERIS_TYPE": 0, "CLASSIFICATION_TYPE": "U", "NORAD_CAT_ID": 66427, "ELEMENT_SET_NO": 999, "REV_AT_EPOCH": 507, "BSTAR": -0.045001371, "MEAN_MOTION_DOT": -0.02028106, "MEAN_MOTION_DDOT": 0}, "tle": {"line1": "1 66427U 25259F   25339.25002315 -.02028106  00000+0 -45001-1 0  9999", "line2": "2 66427  43.0001  91.1429 0001297 279.0940 242.8197 15.46364688  5077"}}, "geometry": {"type": "Point", "coordinates": [-97.0770692777377, 5.180152896134889]}}, {"type": "Feature", "properties": {"norad_id": 66428, "name": "STARLINK-35610", "group": "last-30-days", "lat": -0.1701510040424594, "lon": -91.33136946461028, "alt_km": 429.34010889101046, "timestamp": "2025-12-05T16:54:13.485173+00:00", "meta": {"OBJECT_NAME": "STARLINK-35610", "OBJECT_ID": "2025-259G", "EPOCH": "2025-12-05T06:00:02.000160", "MEAN_MOTION": 15.47720061, "ECCENTRICITY": 9.959e-05, "INCLINATION": 43.0005, "RA_OF_ASC_NODE": 91.1283, "ARG_OF_PERICENTER": 275.724, "MEAN_ANOMALY": 251.8599, "EPHEMERIS_TYPE": 0, "CLASSIFICATION_TYPE": "U", "NORAD_CAT_ID": 66428, "ELEMENT_SET_NO": 999, "REV_AT_EPOCH": 507, "BSTAR": -0.043927196, "MEAN_MOTION_DOT": -0.02070464, "MEAN_MOTION_DDOT": 0}, "tle": {"line1": "1 66428U 25259G   25339.25002315 -.02070464  00000+0 -43927-1 0  9999", "line2": "2 66428  43.0005  91.1283 0000995 275.7240 251.8599 15.47720061  5078"}}, "geometry": {"type": "Point", "coordinates": [-91.33136946461028, -0.1701510040424594]}}, {"type": "Feature", "properties": {"norad_id": 66429, "name": "STARLINK-35533", "group": "last-30-days", "lat": -4.570434887365725, "lon": -86.61017852044438, "alt_km": 425.7704652256234, "timestamp": "2025-12-05T16:54:13.485182+00:00", "meta": {"OBJECT_NAME": "STARLINK-35533", "OBJECT_ID": "2025-259H", "EPOCH": "2025-12-05T00:00:02.999808", "MEAN_MOTION": 15.50220836, "ECCENTRICITY": 0.00010953, "INCLINATION": 43.0005, "RA_OF_ASC_NODE": 92.5766, "ARG_OF_PERICENTER": 268.778, "MEAN_ANOMALY": 306.7772, "EPHEMERIS_TYPE": 0, "CLASSIFICATION_TYPE": "U", "NORAD_CAT_ID": 66429, "ELEMENT_SET_NO": 999, "REV_AT_EPOCH": 503, "BSTAR": -0.041142063, "MEAN_MOTION_DOT": -0.02113915, "MEAN_MOTION_DDOT": 0}, "tle": {"line1": "1 66429U 25259H   25339.00003472 -.02113915  00000+0 -41142-1 0  9994", "line2": "2 66429  43.0005  92.5766 0001095 268.7780 306.7772 15.50220836  5031"}}, "geometry": {"type": "Point", "coordinates": [-86.61017852044438, -4.570434887365725]}}, {"type": "Feature", "properties": {"norad_id": 66430, "name": "STARLINK-35470", "group": "last-30-days", "lat": -8.21706737378615, "lon": -82.62911196860193, "alt_km": 419.8388240295599, "timestamp": "2025-12-05T16:54:13.485191+00:00", "meta": {"OBJECT_NAME": "STARLINK-35470", "OBJECT_ID": "2025-259J", "EPOCH": "2025-12-05T00:00:02.999808", "MEAN_MOTION": 15.5099305, "ECCENTRICITY": 0.00015225, "INCLINATION": 43.0005, "RA_OF_ASC_NODE": 92.5727, "ARG_OF_PERICENTER": 246.3698, "MEAN_ANOMALY": 331.1008, "EPHEMERIS_TYPE": 0, "CLASSIFICATION_TYPE": "U", "NORAD_CAT_ID": 66430, "ELEMENT_SET_NO": 999, "REV_AT_EPOCH": 503, "BSTAR": -0.024959323, "MEAN_MOTION_DOT": -0.01339214, "MEAN_MOTION_DDOT": 0}, "tle": {"line1": "1 66430U 25259J   25339.00003472 -.01339214  00000+0 -24959-1 0  9994", "line2": "2 66430  43.0005  92.5727 0001522 246.3698 331.1008 15.50993050  5034"}}, "geometry": {"type": "Point", "coordinates": [-82.62911196860193, -8.21706737378615]}}, {"type": "Feature", "properties": {"norad_id": 66431, "name": "STARLINK-35439", "group": "last-30-days", "lat": -10.578850968076624, "lon": -79.99182210603274, "alt_km": 415.8542656462532, "timestamp": "2025-12-05T16:54:13.485200+00:00", "meta": {"OBJECT_NAME": "STARLINK-35439", "OBJECT_ID": "2025-259K", "EPOCH": "2025-12-05T00:00:02.999808", "MEAN_MOTION": 15.50553303, "ECCENTRICITY": 0.00017011, "INCLINATION": 43.0008, "RA_OF_ASC_NODE": 92.5673, "ARG_OF_PERICENTER": 272.0526, "MEAN_ANOMALY": 307.4125, "EPHEMERIS_TYPE": 0, "CLASSIFICATION_TYPE": "U", "NORAD_CAT_ID": 66431, "ELEMENT_SET_NO": 999, "REV_AT_EPOCH": 503, "BSTAR": 0.00047776409, "MEAN_MOTION_DOT": 0.0002776, "MEAN_MOTION_DDOT": 0}, "tle": {"line1": "1 66431U 25259K   25339.00003472  .00027760  00000+0  47776-3 0  9996", "line2": "2 66431  43.0008  92.5673 0001701 272.0526 307.4125 15.50553303  5032"}}, "geometry": {"type": "Point", "coordinates": [-79.99182210603274, -10.578850968076624]}}, {"type": "Feature", "properties": {"norad_id": 66432, "name": "STARLINK-35446", "group": "last-30-days", "lat": -11.834814053840333, "lon": -78.56389821941518, "alt_km": 416.280340275619, "timestamp": "2025-12-05T16:54:13.485210+00:00", "meta": {"OBJECT_NAME": "STARLINK-35446", "OBJECT_ID": "2025-259L", "EPOCH": "2025-12-05T00:00:02.999808", "MEAN_MOTION": 15.50614894, "ECCENTRICITY": 0.00013905, "INCLINATION": 43.0008, "RA_OF_ASC_NODE": 92.5616, "ARG_OF_PERICENTER": 276.0762, "MEAN_ANOMALY": 305.2902, "EPHEMERIS_TYPE": 0, "CLASSIFICATION_TYPE": "U", "NORAD_CAT_ID": 66432, "ELEMENT_SET_NO": 999, "REV_AT_EPOCH": 503, "BSTAR": -0.0011889521, "MEAN_MOTION_DOT": -0.00069563, "MEAN_MOTION_DDOT": 0}, "tle": {"line1": "1 66432U 25259L   25339.00003472 -.00069563  00000+0 -11890-2 0  9993", "line2": "2 66432  43.0008  92.5616 0001390 276.0762 305.2902 15.50614894  5032"}}, "geometry": {"type": "Point", "coordinates": [-78.56389821941518, -11.834814053840333]}}, {"type": "Feature", "properties": {"norad_id": 66433, "name": "STARLINK-35457", "group": "last-30-days", "lat": -13.09354943409632, "lon": -77.10862196990622, "alt_km": 416.09540761942844, "timestamp": "2025-12-05T16:54:13.485223+00:00", "meta": {"OBJECT_NAME": "STARLINK-35457", "OBJECT_ID": "2025-259M", "EPOCH": "2025-12-05T00:00:02.999808", "MEAN_MOTION": 15.50624791, "ECCENTRICITY": 0.00015805, "INCLINATION": 43.0007, "RA_OF_ASC_NODE": 92.5583, "ARG_OF_PERICENTER": 258.1502, "MEAN_ANOMALY": 325.132, "EPHEMERIS_TYPE": 0, "CLASSIFICATION_TYPE": "U", "NORAD_CAT_ID": 66433, "ELEMENT_SET_NO": 999, "REV_AT_EPOCH": 503, "BSTAR": -0.0015620313, "MEAN_MOTION_DOT": -0.0009107, "MEAN_MOTION_DDOT": 0}, "tle": {"line1": "1 66433U 25259M   25339.00003472 -.00091070  00000+0 -15620-2 0  9997", "line2": "2 66433  43.0007  92.5583 0001580 258.1502 325.1320 15.50624791  5031"}}, "geometry": {"type": "Point", "coordinates": [-77.10862196990622, -13.09354943409632]}}, {"type": "Feature", "properties": {"norad_id": 66434, "name": "STARLINK-35389", "group": "last-30-days", "lat": -14.35421993513473, "lon": -75.62768785111359, "alt_km": 416.3405014870914, "timestamp": "2025-12-05T16:54:13.485234+00:00", "meta": {"OBJECT_NAME": "STARLINK-35389", "OBJECT_ID": "2025-259N", "EPOCH": "2025-12-05T00:00:02.999808", "MEAN_MOTION": 15.50622892, "ECCENTRICITY": 0.00014066, "INCLINATION": 43.0006, "RA_OF_ASC_NODE": 92.5536, "ARG_OF_PERICENTER": 264.1498, "MEAN_ANOMALY": 321.0512, "EPHEMERIS_TYPE": 0, "CLASSIFICATION_TYPE": "U", "NORAD_CAT_ID": 66434, "ELEMENT_SET_NO": 999, "REV_AT_EPOCH": 503, "BSTAR": -0.0015448605, "MEAN_MOTION_DOT": -0.00090076, "MEAN_MOTION_DDOT": 0}, "tle": {"line1": "1 66434U 25259N   25339.00003472 -.00090076  00000+0 -15449-2 0  9992", "line2": "2 66434  43.0006  92.5536 0001406 264.1498 321.0512 15.50622892  5035"}}, "geometry": {"type": "Point", "coordinates": [-75.62768785111359, -14.35421993513473]}}, {"type": "Feature", "properties": {"norad_id": 66435, "name": "STARLINK-35502", "group": "last-30-days", "lat": -15.609204174963887, "lon": -74.12546308350079, "alt_km": 416.436150728493, "timestamp": "2025-12-05T16:54:13.485242+00:00", "meta": {"OBJECT_NAME": "STARLINK-35502", "OBJECT_ID": "2025-259P", "EPOCH": "2025-12-05T00:00:02.999808", "MEAN_MOTION": 15.50618073, "ECCENTRICITY": 0.00015436, "INCLINATION": 43.0007, "RA_OF_ASC_NODE": 92.5491, "ARG_OF_PERICENTER": 267.9775, "MEAN_ANOMALY": 319.143, "EPHEMERIS_TYPE": 0, "CLASSIFICATION_TYPE": "U", "NORAD_CAT_ID": 66435, "ELEMENT_SET_NO": 999, "REV_AT_EPOCH": 503, "BSTAR": -0.0013812178, "MEAN_MOTION_DOT": -0.00080654, "MEAN_MOTION_DDOT": 0}, "tle": {"line1": "1 66435U 25259P   25339.00003472 -.00080654  00000+0 -13812-2 0  9996", "line2": "2 66435  43.0007  92.5491 0001543 267.9775 319.1430 15.50618073  5031"}}, "geometry": {"type": "Point", "coordinates": [-74.12546308350079, -15.609204174963887]}}, {"type": "Feature", "properties": {"norad_id": 66436, "name": "STARLINK-35501", "group": "last-30-days", "lat": -18.062536101152357, "lon": -71.09581094794866, "alt_km": 416.5457074048363, "timestamp": "2025-12-05T16:54:13.485251+00:00", "meta": {"OBJECT_NAME": "STARLINK-35501", "OBJECT_ID": "2025-259Q", "EPOCH": "2025-12-05T00:00:02.999808", "MEAN_MOTION": 15.50586469, "ECCENTRICITY": 0.0001752, "INCLINATION": 43.0007, "RA_OF_ASC_NODE": 92.539, "ARG_OF_PERICENTER": 269.0372, "MEAN_ANOMALY": 321.9252, "EPHEMERIS_TYPE": 0, "CLASSIFICATION_TYPE": "U", "NORAD_CAT_ID": 66436, "ELEMENT_SET_NO": 999, "REV_AT_EPOCH": 503, "BSTAR": -0.00092574678, "MEAN_MOTION_DOT": -0.00054291, "MEAN_MOTION_DDOT": 0}, "tle": {"line1": "1 66436U 25259Q   25339.00003472 -.00054291  00000+0 -92575-3 0  9999", "line2": "2 66436  43.0007  92.5390 0001752 269.0372 321.9252 15.50586469  5034"}}, "geometry": {"type": "Point", "coordinates": [-71.09581094794866, -18.062536101152357]}}]}